[{"OBJECT_NAME":"STARLINK-34437","OBJECT_ID":"2025-126C","EPOCH":"2026-03-09T23:34:18.023520","MEAN_MOTION":14.98330455,"ECCENTRICITY":0.00030023,"INCLINATION":70.0035,"RA_OF_ASC_NODE":33.8073,"ARG_OF_PERICENTER":264.1696,"MEAN_ANOMALY":95.9121,"EPHEMERIS_TYPE":0,"CLASSIFICATION_TYPE":"U","NORAD_CAT_ID":64346,"ELEMENT_SET_NO":999,"REV_AT_EPOCH":4072,"BSTAR":-0.00016943203,"MEAN_MOTION_DOT":-2.114e-5,"MEAN_MOTION_DDOT":0},{"OBJECT_NAME":"SL-14 DEB","OBJECT_ID":"1989-080E","EPOCH":"2026-03-09T05:35:00.617856","MEAN_MOTION":12.9728574,"ECCENTRICITY":0.09478457,"INCLINATION":82.5007,"RA_OF_ASC_NODE":133.4407,"ARG_OF_PERICENTER":247.0746,"MEAN_ANOMALY":170.9187,"EPHEMERIS_TYPE":0,"CLASSIFICATION_TYPE":"U","NORAD_CAT_ID":20129,"ELEMENT_SET_NO":999,"REV_AT_EPOCH":68960,"BSTAR":0.0012016676,"MEAN_MOTION_DOT":3.131e-5,"MEAN_MOTION_DDOT":0}]
